{
  "type": "FeatureCollection",
  "features": [
    {
      "type": "Feature",
      "properties": {
        "norad_id": 28899,
        "name": "INMARSAT 4-F2 (SOUTHPAN/PRN 122)",
        "group": "gnss",
        "lat": 3.9079857195174865,
        "lon": 169.99323947130446,
        "alt_km": 35784.63131359549,
        "timestamp": "2025-12-07T20:38:14.308466+00:00",
        "meta_object_name": "INMARSAT 4-F2 (SOUTHPAN/PRN 122)",
        "meta_object_id": "2005-044A",
        "meta_epoch": "2025-12-06T14:20:53.154816",
        "meta_mean_motion": 1.00270597,
        "meta_eccentricity": 0.00035348,
        "meta_inclination": 4.8442,
        "meta_ra_of_asc_node": 43.674,
        "meta_arg_of_pericenter": 210.8214,
        "meta_mean_anomaly": 179.8651,
        "meta_ephemeris_type": 0,
        "meta_classification_type": "U",
        "meta_norad_cat_id": 28899,
        "meta_element_set_no": 999,
        "meta_rev_at_epoch": 7359,
        "meta_bstar": 0,
        "meta_mean_motion_dot": -2.57e-06,
        "meta_mean_motion_ddot": 0,
        "tle_line1": "1 28899U 05044A   25340.59783744 -.00000257  00000+0  00000+0 0  9993",
        "tle_line2": "2 28899   4.8442  43.6740 0003534 210.8214 179.8651  1.00270597 73599"
      },
      "geometry": {
        "type": "Point",
        "coordinates": [
          169.99323947130446,
          3.9079857195174865
        ]
      }
    },
    {
      "type": "Feature",
      "properties": {
        "norad_id": 29486,
        "name": "GPS BIIRM-2 (PRN 31)",
        "group": "gnss",
        "lat": -39.33666537874398,
        "lon": 14.453582979597094,
        "alt_km": 20472.81189200912,
        "timestamp": "2025-12-07T20:38:14.308478+00:00",
        "meta_object_name": "GPS BIIRM-2 (PRN 31)",
        "meta_object_id": "2006-042A",
        "meta_epoch": "2025-12-06T13:25:33.106944",
        "meta_mean_motion": 2.00554295,
        "meta_eccentricity": 0.01073619,
        "meta_inclination": 54.6932,
        "meta_ra_of_asc_node": 158.9861,
        "meta_arg_of_pericenter": 51.8104,
        "meta_mean_anomaly": 320.1566,
        "meta_ephemeris_type": 0,
        "meta_classification_type": "U",
        "meta_norad_cat_id": 29486,
        "meta_element_set_no": 999,
        "meta_rev_at_epoch": 14053,
        "meta_bstar": 0,
        "meta_mean_motion_dot": 6.3e-07,
        "meta_mean_motion_ddot": 0,
        "tle_line1": "1 29486U 06042A   25340.55941096  .00000063  00000+0  00000+0 0  9991",
        "tle_line2": "2 29486  54.6932 158.9861 0107361  51.8104 320.1566  2.00554295140533"
      },
      "geometry": {
        "type": "Point",
        "coordinates": [
          14.453582979597094,
          -39.33666537874398
        ]
      }
    },
    {
      "type": "Feature",
      "properties": {
        "norad_id": 29601,
        "name": "GPS BIIRM-3 (PRN 12)",
        "group": "gnss",
        "lat": -51.215177662193476,
        "lon": 160.8853701287349,
        "alt_km": 20404.57515084072,
        "timestamp": "2025-12-07T20:38:14.308490+00:00",
        "meta_object_name": "GPS BIIRM-3 (PRN 12)",
        "meta_object_id": "2006-052A",
        "meta_epoch": "2025-12-06T23:07:38.134848",
        "meta_mean_motion": 2.0057305,
        "meta_eccentricity": 0.00876251,
        "meta_inclination": 54.9717,
        "meta_ra_of_asc_node": 221.6275,
        "meta_arg_of_pericenter": 87.379,
        "meta_mean_anomaly": 273.714,
        "meta_ephemeris_type": 0,
        "meta_classification_type": "U",
        "meta_norad_cat_id": 29601,
        "meta_element_set_no": 999,
        "meta_rev_at_epoch": 13955,
        "meta_bstar": 0,
        "meta_mean_motion_dot": 3.6e-07,
        "meta_mean_motion_ddot": 0,
        "tle_line1": "1 29601U 06052A   25340.96363582  .00000036  00000+0  00000+0 0  9994",
        "tle_line2": "2 29601  54.9717 221.6275 0087625  87.3790 273.7140  2.00573050139559"
      },
      "geometry": {
        "type": "Point",
        "coordinates": [
          160.8853701287349,
          -51.215177662193476
        ]
      }
    },
    {
      "type": "Feature",
      "properties": {
        "norad_id": 32260,
        "name": "GPS BIIRM-4 (PRN 15)",
        "group": "gnss",
        "lat": 48.50892799147317,
        "lon": 143.28098576906285,
        "alt_km": 19759.63227418547,
        "timestamp": "2025-12-07T20:38:14.308502+00:00",
        "meta_object_name": "GPS BIIRM-4 (PRN 15)",
        "meta_object_id": "2007-047A",
        "meta_epoch": "2025-12-07T06:27:37.335168",
        "meta_mean_motion": 2.00564639,
        "meta_eccentricity": 0.01643187,
        "meta_inclination": 53.9516,
        "meta_ra_of_asc_node": 87.9845,
        "meta_arg_of_pericenter": 85.1858,
        "meta_mean_anomaly": 276.6734,
        "meta_ephemeris_type": 0,
        "meta_classification_type": "U",
        "meta_norad_cat_id": 32260,
        "meta_element_set_no": 999,
        "meta_rev_at_epoch": 13296,
        "meta_bstar": 0,
        "meta_mean_motion_dot": -2e-07,
        "meta_mean_motion_ddot": 0,
        "tle_line1": "1 32260U 07047A   25341.26918212 -.00000020  00000+0  00000+0 0  9998",
        "tle_line2": "2 32260  53.9516  87.9845 0164318  85.1858 276.6734  2.00564639132964"
      },
      "geometry": {
        "type": "Point",
        "coordinates": [
          143.28098576906285,
          48.50892799147317
        ]
      }
    },
    {
      "type": "Feature",
      "properties": {
        "norad_id": 32275,
        "name": "COSMOS 2433 (720)",
        "group": "gnss",
        "lat": -45.81155734878922,
        "lon": -65.35544097360057,
        "alt_km": 19127.147906826398,
        "timestamp": "2025-12-07T20:38:14.308513+00:00",
        "meta_object_name": "COSMOS 2433 (720)",
        "meta_object_id": "2007-052A",
        "meta_epoch": "2025-12-06T23:44:11.537952",
        "meta_mean_motion": 2.13103921,
        "meta_eccentricity": 0.00054556,
        "meta_inclination": 65.6864,
        "meta_ra_of_asc_node": 322.3989,
        "meta_arg_of_pericenter": 253.5069,
        "meta_mean_anomaly": 106.429,
        "meta_ephemeris_type": 0,
        "meta_classification_type": "U",
        "meta_norad_cat_id": 32275,
        "meta_element_set_no": 999,
        "meta_rev_at_epoch": 14096,
        "meta_bstar": 0,
        "meta_mean_motion_dot": -5e-07,
        "meta_mean_motion_ddot": 0,
        "tle_line1": "1 32275U 07052A   25340.98902243 -.00000050  00000+0  00000+0 0  9998",
        "tle_line2": "2 32275  65.6864 322.3989 0005455 253.5069 106.4290  2.13103921140965"
      },
      "geometry": {
        "type": "Point",
        "coordinates": [
          -65.35544097360057,
          -45.81155734878922
        ]
      }
    },
    {
      "type": "Feature",
      "properties": {
        "norad_id": 32276,
        "name": "COSMOS 2432 (719)",
        "group": "gnss",
        "lat": -60.33185950263274,
        "lon": -165.05298643155842,
        "alt_km": 19121.64542314367,
        "timestamp": "2025-12-07T20:38:14.308525+00:00",
        "meta_object_name": "COSMOS 2432 (719)",
        "meta_object_id": "2007-052B",
        "meta_epoch": "2025-12-07T02:45:37.162080",
        "meta_mean_motion": 2.13103072,
        "meta_eccentricity": 0.00112789,
        "meta_inclination": 65.7022,
        "meta_ra_of_asc_node": 322.5187,
        "meta_arg_of_pericenter": 312.1761,
        "meta_mean_anomaly": 88.8989,
        "meta_ephemeris_type": 0,
        "meta_classification_type": "U",
        "meta_norad_cat_id": 32276,
        "meta_element_set_no": 999,
        "meta_rev_at_epoch": 14099,
        "meta_bstar": 0,
        "meta_mean_motion_dot": -5e-07,
        "meta_mean_motion_ddot": 0,
        "tle_line1": "1 32276U 07052B   25341.11501345 -.00000050  00000+0  00000+0 0  9993",
        "tle_line2": "2 32276  65.7022 322.5187 0011278 312.1761  88.8989  2.13103072140994"
      },
      "geometry": {
        "type": "Point",
        "coordinates": [
          -165.05298643155842,
          -60.33185950263274
        ]
      }
    },
    {
      "type": "Feature",
      "properties": {
        "norad_id": 32384,
        "name": "GPS BIIRM-5 (PRN 29)",
        "group": "gnss",
        "lat": -14.422787257241566,
        "lon": 112.1191776554417,
        "alt_km": 20112.904225380258,
        "timestamp": "2025-12-07T20:38:14.308537+00:00",
        "meta_object_name": "GPS BIIRM-5 (PRN 29)",
        "meta_object_id": "2007-062A",
        "meta_epoch": "2025-12-07T07:51:30.252672",
        "meta_mean_motion": 2.00576914,
        "meta_eccentricity": 0.00322165,
        "meta_inclination": 55.187,
        "meta_ra_of_asc_node": 281.863,
        "meta_arg_of_pericenter": 162.6337,
        "meta_mean_anomaly": 10.2823,
        "meta_ephemeris_type": 0,
        "meta_classification_type": "U",
        "meta_norad_cat_id": 32384,
        "meta_element_set_no": 999,
        "meta_rev_at_epoch": 13166,
        "meta_bstar": 0,
        "meta_mean_motion_dot": -4e-07,
        "meta_mean_motion_ddot": 0,
        "tle_line1": "1 32384U 07062A   25341.32743348 -.00000040  00000+0  00000+0 0  9997",
        "tle_line2": "2 32384  55.1870 281.8630 0032216 162.6337  10.2823  2.00576914131665"
      },
      "geometry": {
        "type": "Point",
        "coordinates": [
          112.1191776554417,
          -14.422787257241566
        ]
      }
    }
  ]
}